{
"type": "FeatureCollection",
"name": "inundable",
"crs": { "type": "name", "properties": { "name": "urn:ogc:def:crs:OGC:1.3:CRS84" } },
"features": [
{ "type": "Feature", "properties": { "fid": 1 }, "geometry": { "type": "MultiPolygon", "coordinates": [ [ [ [ -67.570592016689289, -54.871395790673702 ], [ -67.570507547535613, -54.871354221536265 ], [ -67.570291374451187, -54.871231637773853 ], [ -67.570094626530974, -54.871136617821257 ], [ -67.569864999915495, -54.871044776122723 ], [ -67.569667367217065, -54.870980647182009 ], [ -67.569464348221373, -54.870920257383382 ], [ -67.569215745393763, -54.870852606639055 ], [ -67.569008228789841, -54.870819786975652 ], [ -67.568775433012917, -54.87078853412914 ], [ -67.568541141059058, -54.870770322290525 ], [ -67.568334449543684, -54.870758378249477 ], [ -67.567732977604152, -54.870770516763955 ], [ -67.566897078023658, -54.870785400669739 ], [ -67.565745840459741, -54.870783694745747 ], [ -67.565654297804386, -54.870772237167856 ], [ -67.564145808076873, -54.870583423144318 ], [ -67.563470102969177, -54.870286624055872 ], [ -67.562781310232509, -54.869894587968886 ], [ -67.562451460340213, -54.869724292823015 ], [ -67.561465656876337, -54.869397903454448 ], [ -67.561226740596823, -54.869331219687588 ], [ -67.560677218374764, -54.869200777095152 ], [ -67.560485797821656, -54.869191073213386 ], [ -67.558789976155282, -54.86930437751154 ], [ -67.557862363804333, -54.869369429877715 ], [ -67.557804562816969, -54.869378818571853 ], [ -67.557810003332634, -54.869442801727224 ], [ -67.55803115, -54.86942303 ], [ -67.55846383, -54.86943343 ], [ -67.55898487, -54.86939683 ], [ -67.55950202, -54.86941008 ], [ -67.55984573, -54.86941929 ], [ -67.56027297, -54.86948001 ], [ -67.56070271, -54.86958821 ], [ -67.56087392, -54.86969011 ], [ -67.56112364, -54.86994307 ], [ -67.56137116, -54.87014824 ], [ -67.56135455, -54.87039743 ], [ -67.56133384, -54.87069671 ], [ -67.5612333, -54.87089422 ], [ -67.56121949, -54.87109377 ], [ -67.56111894, -54.8712913 ], [ -67.56110513, -54.87149087 ], [ -67.56153187, -54.87160078 ], [ -67.56196553, -54.87161091 ], [ -67.56221883, -54.87171677 ], [ -67.56246526, -54.87192244 ], [ -67.5627117, -54.87212811 ], [ -67.56278123, -54.87237966 ], [ -67.56285765, -54.8725314 ], [ -67.56319431, -54.87268922 ], [ -67.56361774, -54.87284908 ], [ -67.56396131, -54.87290709 ], [ -67.56430145, -54.87301501 ], [ -67.56473521, -54.87302513 ], [ -67.56516898, -54.87303525 ], [ -67.5656895, -54.87304739 ], [ -67.56612327, -54.8730575 ], [ -67.56647371, -54.87301568 ], [ -67.56682414, -54.87297385 ], [ -67.56717946, -54.87283222 ], [ -67.56752764, -54.87269076 ], [ -67.56796089, -54.87255151 ], [ -67.5682208, -54.87245809 ], [ -67.56856673, -54.87236678 ], [ -67.5689144, -54.87227547 ], [ -67.56925886, -54.87223396 ], [ -67.56952079, -54.87214068 ], [ -67.56978555, -54.87199772 ], [ -67.57012653, -54.87200602 ], [ -67.570360288475001, -54.872039212775135 ], [ -67.570592016689289, -54.871395790673702 ] ] ] ] } }
]
}
