{
"type": "FeatureCollection",
"name": "Relevamiento Geográfico de Elementos Críticos y Recursos para la Gestión de Riesgos - Puerto Almanza y Punta Paraná",
"crs": { "type": "name", "properties": { "name": "urn:ogc:def:crs:EPSG::4979" } },
"features": [
{ "type": "Feature", "properties": { "Tipo de elemento preexistente a relevar": "Comercios", "Subtipo de comercio": "Gastronómicos", "Nombre del elemento (Ej. Mirador del Beagle)": "Jenny & York", "Referencia cercana (Ej. A 50m del puente)": "Sobre la ruta principal", "Estado de Conservación": "Bueno", "Material principal": "Madera", "Uso actual": "Activo", "¿Presenta algún riesgo?": "Ninguno", "Nivel de Urgencia": "Baja", "Comentarios adicionales": "Estacionamiento a ambos lados de la ruta y tiene generador y Zeppelin ", "Fotografía de detalle (objeto cercano)": "1778252103318.jpg", "Fotografía de detalle (objeto cercano)_URL": "https://kf.kobotoolbox.org/api/v2/assets/ajuHf4pirxdd5dDnBoAuBd/data/746973077/attachments/attu5AifS5rsfEbfaskVXvQp/", "Fotografía del entorno (contexto general)": "1778252124143.jpg", "Fotografía del entorno (contexto general)_URL": "https://kf.kobotoolbox.org/api/v2/assets/ajuHf4pirxdd5dDnBoAuBd/data/746973077/attachments/attDzrzhzAEjbfpnfFTSFWYP/", "_id": 746973077, "_uuid": "b88f51d5-8c73-48aa-bc73-a0579f1239de", "_submission_time": "2026-05-08T23:10:34", "_status": "submitted_via_web", "_submitted_by": "victorvisnuk", "__version__": "vsQjxVBRjZaow9Lao72VJT", "meta/rootUuid": "uuid:b88f51d5-8c73-48aa-bc73-a0579f1239de", "_index": 2 }, "geometry": { "type": "Point", "coordinates": [ -67.5494401, -54.8684283, 18.0 ] } },
{ "type": "Feature", "properties": { "Tipo de elemento preexistente a relevar": "Comercios", "Subtipo de comercio": "Almacenes", "Nombre del elemento (Ej. Mirador del Beagle)": "Quilmes", "Referencia cercana (Ej. A 50m del puente)": "Bote abandonado al frente y casa rodante al lado", "Estado de Conservación": "Regular", "Material principal": "Madera", "Uso actual": "Abandonado", "¿Presenta algún riesgo?": "Ninguno", "Nivel de Urgencia": "Baja", "Comentarios adicionales": "Sin uso", "Fotografía de detalle (objeto cercano)": "1778252354269.jpg", "Fotografía de detalle (objeto cercano)_URL": "https://kf.kobotoolbox.org/api/v2/assets/ajuHf4pirxdd5dDnBoAuBd/data/746973117/attachments/atto6o5vhw9M6pauK7oiTpyj/", "Fotografía del entorno (contexto general)": "1778252369693.jpg", "Fotografía del entorno (contexto general)_URL": "https://kf.kobotoolbox.org/api/v2/assets/ajuHf4pirxdd5dDnBoAuBd/data/746973117/attachments/attJmkEySBajvkXxp2iUYgsa/", "_id": 746973117, "_uuid": "286ab49d-aa57-45a3-8af3-c9f21826bfac", "_submission_time": "2026-05-08T23:10:42", "_status": "submitted_via_web", "_submitted_by": "victorvisnuk", "__version__": "vsQjxVBRjZaow9Lao72VJT", "meta/rootUuid": "uuid:286ab49d-aa57-45a3-8af3-c9f21826bfac", "_index": 3 }, "geometry": { "type": "Point", "coordinates": [ -67.5474502, -54.8682463, 21.0 ] } },
{ "type": "Feature", "properties": { "Tipo de elemento preexistente a relevar": "Otro", "Especifique otro tipo de elemento": "Punto de reunión", "Nombre del elemento (Ej. Mirador del Beagle)": "Restoran Onas", "Referencia cercana (Ej. A 50m del puente)": "Del lado de la costa", "Estado de Conservación": "Bueno", "Material principal": "Suelo natural", "Uso actual": "Activo", "¿Presenta algún riesgo?": "Inundación", "Nivel de Urgencia": "Media", "Comentarios adicionales": "Se juntarian antes de subir", "Fotografía de detalle (objeto cercano)": "1778252648028.jpg", "Fotografía de detalle (objeto cercano)_URL": "https://kf.kobotoolbox.org/api/v2/assets/ajuHf4pirxdd5dDnBoAuBd/data/746973141/attachments/attJHuUuWTX2ymjDgmBcmLr7/", "Fotografía del entorno (contexto general)": "1778252661700.jpg", "Fotografía del entorno (contexto general)_URL": "https://kf.kobotoolbox.org/api/v2/assets/ajuHf4pirxdd5dDnBoAuBd/data/746973141/attachments/attCHyWR53BVTsjJEKFnMXsC/", "_id": 746973141, "_uuid": "f8b4c986-f29e-49e8-b49e-ea9894a08a77", "_submission_time": "2026-05-08T23:10:50", "_status": "submitted_via_web", "_submitted_by": "victorvisnuk", "__version__": "vsQjxVBRjZaow9Lao72VJT", "meta/rootUuid": "uuid:f8b4c986-f29e-49e8-b49e-ea9894a08a77", "_index": 4 }, "geometry": { "type": "Point", "coordinates": [ -67.5458208, -54.8683031, 19.0 ] } },
{ "type": "Feature", "properties": { "Tipo de elemento preexistente a relevar": "Comercios", "Subtipo de comercio": "Kioscos", "Nombre del elemento (Ej. Mirador del Beagle)": "El chucaro", "Referencia cercana (Ej. A 50m del puente)": "Casilla pequeña ", "Estado de Conservación": "Bueno", "Material principal": "Madera", "Uso actual": "Activo", "¿Presenta algún riesgo?": "Ninguno", "Nivel de Urgencia": "Baja", "Comentarios adicionales": "Parece vender algo gastronómico también ", "Fotografía de detalle (objeto cercano)": "1778252866611.jpg", "Fotografía de detalle (objeto cercano)_URL": "https://kf.kobotoolbox.org/api/v2/assets/ajuHf4pirxdd5dDnBoAuBd/data/746973168/attachments/att2yXueyANVK9tCQNiK9fkS/", "Fotografía del entorno (contexto general)": "1778252878624.jpg", "Fotografía del entorno (contexto general)_URL": "https://kf.kobotoolbox.org/api/v2/assets/ajuHf4pirxdd5dDnBoAuBd/data/746973168/attachments/attrwZHqjqj6GrEz6zvFGRZL/", "_id": 746973168, "_uuid": "8ebd5df9-1574-4cf2-9993-ffefd134ff42", "_submission_time": "2026-05-08T23:11:00", "_status": "submitted_via_web", "_submitted_by": "victorvisnuk", "__version__": "vsQjxVBRjZaow9Lao72VJT", "meta/rootUuid": "uuid:8ebd5df9-1574-4cf2-9993-ffefd134ff42", "_index": 5 }, "geometry": { "type": "Point", "coordinates": [ -67.544431, -54.8682055, 22.0 ] } },
{ "type": "Feature", "properties": { "Tipo de elemento preexistente a relevar": "Comercios", "Subtipo de comercio": "Gastronómicos", "Nombre del elemento (Ej. Mirador del Beagle)": "El rincón del viejo", "Referencia cercana (Ej. A 50m del puente)": "Predio grande cerco naranja", "Estado de Conservación": "Bueno", "Material principal": "Madera", "Uso actual": "Activo", "¿Presenta algún riesgo?": "Ninguno", "Nivel de Urgencia": "Baja", "Comentarios adicionales": "Tiene estacionamiento de ambos lados de la ruta", "Fotografía de detalle (objeto cercano)": "1778253116322.jpg", "Fotografía de detalle (objeto cercano)_URL": "https://kf.kobotoolbox.org/api/v2/assets/ajuHf4pirxdd5dDnBoAuBd/data/746973187/attachments/attkqmUNgdyd2d4YjbQ43X9K/", "Fotografía del entorno (contexto general)": "1778253132398.jpg", "Fotografía del entorno (contexto general)_URL": "https://kf.kobotoolbox.org/api/v2/assets/ajuHf4pirxdd5dDnBoAuBd/data/746973187/attachments/attosntU8CGDpchhx9yFnGtZ/", "_id": 746973187, "_uuid": "6f0078c9-417d-4120-bf48-1591e00e8cc7", "_submission_time": "2026-05-08T23:11:09", "_status": "submitted_via_web", "_submitted_by": "victorvisnuk", "__version__": "vsQjxVBRjZaow9Lao72VJT", "meta/rootUuid": "uuid:6f0078c9-417d-4120-bf48-1591e00e8cc7", "_index": 6 }, "geometry": { "type": "Point", "coordinates": [ -67.5428128, -54.8680063, 20.0 ] } },
{ "type": "Feature", "properties": { "Tipo de elemento preexistente a relevar": "Comercios", "Subtipo de comercio": "Otros", "Nombre del elemento (Ej. Mirador del Beagle)": "Panadería almanza", "Referencia cercana (Ej. A 50m del puente)": "Carteleria cercana", "Estado de Conservación": "Regular", "Material principal": "Madera", "Uso actual": "Activo", "¿Presenta algún riesgo?": "Ninguno", "Nivel de Urgencia": "Baja", "Comentarios adicionales": "Cerrado en el momento de la salida ", "Fotografía de detalle (objeto cercano)": "1778253411541.jpg", "Fotografía de detalle (objeto cercano)_URL": "https://kf.kobotoolbox.org/api/v2/assets/ajuHf4pirxdd5dDnBoAuBd/data/746973210/attachments/att5NRVcnsVRnc5Sr6quSEyX/", "Fotografía del entorno (contexto general)": "1778253432181.jpg", "Fotografía del entorno (contexto general)_URL": "https://kf.kobotoolbox.org/api/v2/assets/ajuHf4pirxdd5dDnBoAuBd/data/746973210/attachments/attx3uPrTQe4dPPwuqmcKTff/", "_id": 746973210, "_uuid": "265e8de8-483a-49d0-8bd5-b79e48d27612", "_submission_time": "2026-05-08T23:11:17", "_status": "submitted_via_web", "_submitted_by": "victorvisnuk", "__version__": "vsQjxVBRjZaow9Lao72VJT", "meta/rootUuid": "uuid:265e8de8-483a-49d0-8bd5-b79e48d27612", "_index": 7 }, "geometry": { "type": "Point", "coordinates": [ -67.5403907, -54.8677249, 21.0 ] } },
{ "type": "Feature", "properties": { "Tipo de elemento preexistente a relevar": "Comercios", "Subtipo de comercio": "Plantas de procesamiento de pesca y puntos de venta", "Nombre del elemento (Ej. Mirador del Beagle)": "Australmar", "Referencia cercana (Ej. A 50m del puente)": "Al lado de su piscicultura", "Estado de Conservación": "Bueno", "Material principal": "Madera", "Uso actual": "Activo", "¿Presenta algún riesgo?": "Ninguno", "Nivel de Urgencia": "Baja", "Fotografía de detalle (objeto cercano)": "1778253598485.jpg", "Fotografía de detalle (objeto cercano)_URL": "https://kf.kobotoolbox.org/api/v2/assets/ajuHf4pirxdd5dDnBoAuBd/data/746973222/attachments/attLR5EfDJBMZ8YQkLFzQuj2/", "Fotografía del entorno (contexto general)": "1778253613781.jpg", "Fotografía del entorno (contexto general)_URL": "https://kf.kobotoolbox.org/api/v2/assets/ajuHf4pirxdd5dDnBoAuBd/data/746973222/attachments/attXXTmdVtKzEo3haANSxzsN/", "_id": 746973222, "_uuid": "49cd8869-4326-42ac-a659-1b9ee97b3e93", "_submission_time": "2026-05-08T23:11:26", "_status": "submitted_via_web", "_submitted_by": "victorvisnuk", "__version__": "vsQjxVBRjZaow9Lao72VJT", "meta/rootUuid": "uuid:49cd8869-4326-42ac-a659-1b9ee97b3e93", "_index": 8 }, "geometry": { "type": "Point", "coordinates": [ -67.539534, -54.8676956, 23.0 ] } },
{ "type": "Feature", "properties": { "Tipo de elemento preexistente a relevar": "Comercios", "Subtipo de comercio": "Gastronómicos", "Nombre del elemento (Ej. Mirador del Beagle)": "La sirena y el capitan", "Estado de Conservación": "Bueno", "Material principal": "Madera", "Uso actual": "Activo", "¿Presenta algún riesgo?": "Ninguno", "Nivel de Urgencia": "Baja", "Comentarios adicionales": "Estacionamiento de un solo lado", "Fotografía de detalle (objeto cercano)": "1778254072033.jpg", "Fotografía de detalle (objeto cercano)_URL": "https://kf.kobotoolbox.org/api/v2/assets/ajuHf4pirxdd5dDnBoAuBd/data/746973250/attachments/att725NQ53WxnZRavwncxxGx/", "Fotografía del entorno (contexto general)": "1778254092967.jpg", "Fotografía del entorno (contexto general)_URL": "https://kf.kobotoolbox.org/api/v2/assets/ajuHf4pirxdd5dDnBoAuBd/data/746973250/attachments/attKfc98GURcjpXYGxaiU8aB/", "_id": 746973250, "_uuid": "a68808e7-e455-459f-854b-5122c7329f0f", "_submission_time": "2026-05-08T23:11:31", "_status": "submitted_via_web", "_submitted_by": "victorvisnuk", "__version__": "vsQjxVBRjZaow9Lao72VJT", "meta/rootUuid": "uuid:a68808e7-e455-459f-854b-5122c7329f0f", "_index": 9 }, "geometry": { "type": "Point", "coordinates": [ -67.5525415, -54.8688356, 17.0 ] } },
{ "type": "Feature", "properties": { "Tipo de elemento preexistente a relevar": "Comercios", "Subtipo de comercio": "Kioscos", "Nombre del elemento (Ej. Mirador del Beagle)": "Yamana", "Estado de Conservación": "Bueno", "Material principal": "Chapa", "Uso actual": "Activo", "¿Presenta algún riesgo?": "Ninguno", "Nivel de Urgencia": "Baja", "Fotografía de detalle (objeto cercano)": "1778254451336.jpg", "Fotografía de detalle (objeto cercano)_URL": "https://kf.kobotoolbox.org/api/v2/assets/ajuHf4pirxdd5dDnBoAuBd/data/746973271/attachments/attKBQivEiaK5YXjVdBtFdW3/", "Fotografía del entorno (contexto general)": "1778254464356.jpg", "Fotografía del entorno (contexto general)_URL": "https://kf.kobotoolbox.org/api/v2/assets/ajuHf4pirxdd5dDnBoAuBd/data/746973271/attachments/attdmR2chrUCqpZuPZPoRKWQ/", "_id": 746973271, "_uuid": "3293f77d-a984-4d07-b2fb-431dcd62d12a", "_submission_time": "2026-05-08T23:11:40", "_status": "submitted_via_web", "_submitted_by": "victorvisnuk", "__version__": "vsQjxVBRjZaow9Lao72VJT", "meta/rootUuid": "uuid:3293f77d-a984-4d07-b2fb-431dcd62d12a", "_index": 10 }, "geometry": { "type": "Point", "coordinates": [ -67.5606934, -54.8691085, 47.799999237060547 ] } },
{ "type": "Feature", "properties": { "Tipo de elemento preexistente a relevar": "Cartelería e información", "Tipo de señalética": "Señalética Preventiva", "Estado de Conservación": "Bueno", "Material principal": "Chapa", "Uso actual": "Activo", "¿Presenta algún riesgo?": "Ninguno", "Nivel de Urgencia": "Baja", "Fotografía de detalle (objeto cercano)": "1778254514352.jpg", "Fotografía de detalle (objeto cercano)_URL": "https://kf.kobotoolbox.org/api/v2/assets/ajuHf4pirxdd5dDnBoAuBd/data/746973293/attachments/attZThhhjSGitJAJJwvHfyMr/", "Fotografía del entorno (contexto general)": "1778254530673.jpg", "Fotografía del entorno (contexto general)_URL": "https://kf.kobotoolbox.org/api/v2/assets/ajuHf4pirxdd5dDnBoAuBd/data/746973293/attachments/attthJRqE3DmvRPybePzG3wa/", "_id": 746973293, "_uuid": "a86c00a8-0980-4750-b54b-d9cd27260c5e", "_submission_time": "2026-05-08T23:11:54", "_status": "submitted_via_web", "_submitted_by": "victorvisnuk", "__version__": "vsQjxVBRjZaow9Lao72VJT", "meta/rootUuid": "uuid:a86c00a8-0980-4750-b54b-d9cd27260c5e", "_index": 11 }, "geometry": { "type": "Point", "coordinates": [ -67.5610029, -54.8691371, 47.799999237060547 ] } },
{ "type": "Feature", "properties": { "Tipo de elemento preexistente a relevar": "Comercios", "Subtipo de comercio": "Gastronómicos", "Nombre del elemento (Ej. Mirador del Beagle)": "El fronton", "Estado de Conservación": "Bueno", "Material principal": "Madera", "Uso actual": "Activo", "¿Presenta algún riesgo?": "Ninguno", "Nivel de Urgencia": "Baja", "Comentarios adicionales": "Tiene navegaciones", "Fotografía de detalle (objeto cercano)": "1778254598875.jpg", "Fotografía de detalle (objeto cercano)_URL": "https://kf.kobotoolbox.org/api/v2/assets/ajuHf4pirxdd5dDnBoAuBd/data/746973331/attachments/attvVHtDo2agRREKYmjsAvd2/", "Fotografía del entorno (contexto general)": "1778254616758.jpg", "Fotografía del entorno (contexto general)_URL": "https://kf.kobotoolbox.org/api/v2/assets/ajuHf4pirxdd5dDnBoAuBd/data/746973331/attachments/attvzjaXBrXxJMejUeS2GJqd/", "_id": 746973331, "_uuid": "6dc1c33d-3d83-414c-9521-f0fc6656fdf6", "_submission_time": "2026-05-08T23:12:05", "_status": "submitted_via_web", "_submitted_by": "victorvisnuk", "__version__": "vsQjxVBRjZaow9Lao72VJT", "meta/rootUuid": "uuid:6dc1c33d-3d83-414c-9521-f0fc6656fdf6", "_index": 12 }, "geometry": { "type": "Point", "coordinates": [ -67.5615454, -54.8692638, 47.799999237060547 ] } },
{ "type": "Feature", "properties": { "Tipo de elemento preexistente a relevar": "Conectividad Digital (Puntos Wi-Fi)", "Referencia cercana (Ej. A 50m del puente)": "Escuela", "Estado de Conservación": "Bueno", "Material principal": "Metálico", "Uso actual": "Abandonado", "¿Presenta algún riesgo?": "Ninguno", "Nivel de Urgencia": "Baja", "Comentarios adicionales": "No parece funcionar", "Fotografía de detalle (objeto cercano)": "1778254674775.jpg", "Fotografía de detalle (objeto cercano)_URL": "https://kf.kobotoolbox.org/api/v2/assets/ajuHf4pirxdd5dDnBoAuBd/data/746973364/attachments/attaBzLJxE2Y2o6FGBY2j2ar/", "Fotografía del entorno (contexto general)": "1778254683945.jpg", "Fotografía del entorno (contexto general)_URL": "https://kf.kobotoolbox.org/api/v2/assets/ajuHf4pirxdd5dDnBoAuBd/data/746973364/attachments/attDfN2rtgUojs8MmNRTVa8Q/", "_id": 746973364, "_uuid": "fa6267f9-7a3a-4047-bed6-8b1514448446", "_submission_time": "2026-05-08T23:12:12", "_status": "submitted_via_web", "_submitted_by": "victorvisnuk", "__version__": "vsQjxVBRjZaow9Lao72VJT", "meta/rootUuid": "uuid:fa6267f9-7a3a-4047-bed6-8b1514448446", "_index": 13 }, "geometry": { "type": "Point", "coordinates": [ -67.5621117, -54.8694396, 18.0 ] } },
{ "type": "Feature", "properties": { "Tipo de elemento preexistente a relevar": "Otro", "Especifique otro tipo de elemento": "Escuela", "Nombre del elemento (Ej. Mirador del Beagle)": "N° 49 \"44 Héroes del submarino ARA San Juan\"", "Estado de Conservación": "Bueno", "Material principal": "Hormigón", "Uso actual": "Activo", "¿Presenta algún riesgo?": "Inundación", "Nivel de Urgencia": "Baja", "Fotografía de detalle (objeto cercano)": "1778254906709.jpg", "Fotografía de detalle (objeto cercano)_URL": "https://kf.kobotoolbox.org/api/v2/assets/ajuHf4pirxdd5dDnBoAuBd/data/746973388/attachments/attpFBDwEXfohUgYDND27Hsf/", "Fotografía del entorno (contexto general)": "1778254927579.jpg", "Fotografía del entorno (contexto general)_URL": "https://kf.kobotoolbox.org/api/v2/assets/ajuHf4pirxdd5dDnBoAuBd/data/746973388/attachments/att7sc5c5FbFj6XvxYHs3ybH/", "_id": 746973388, "_uuid": "0de0b9e2-a05c-4f3f-88d7-16ad36e18c21", "_submission_time": "2026-05-08T23:12:20", "_status": "submitted_via_web", "_submitted_by": "victorvisnuk", "__version__": "vsQjxVBRjZaow9Lao72VJT", "meta/rootUuid": "uuid:0de0b9e2-a05c-4f3f-88d7-16ad36e18c21", "_index": 14 }, "geometry": { "type": "Point", "coordinates": [ -67.5625811, -54.869608, 20.0 ] } },
{ "type": "Feature", "properties": { "Tipo de elemento preexistente a relevar": "Otro", "Especifique otro tipo de elemento": "Plaza", "Nombre del elemento (Ej. Mirador del Beagle)": "Plaza escuela ", "Referencia cercana (Ej. A 50m del puente)": "Frente a la escuela ", "Estado de Conservación": "Regular", "Material principal": "Suelo natural", "Uso actual": "Activo", "¿Presenta algún riesgo?": "Inundación", "Nivel de Urgencia": "Baja", "Fotografía de detalle (objeto cercano)": "1778255206224.jpg", "Fotografía de detalle (objeto cercano)_URL": "https://kf.kobotoolbox.org/api/v2/assets/ajuHf4pirxdd5dDnBoAuBd/data/746973412/attachments/att9fZ66LdxgCUDLJ7gwcTSG/", "Fotografía del entorno (contexto general)": "1778255217800.jpg", "Fotografía del entorno (contexto general)_URL": "https://kf.kobotoolbox.org/api/v2/assets/ajuHf4pirxdd5dDnBoAuBd/data/746973412/attachments/att5txGMXyzjTJ6LjFVZXgYS/", "_id": 746973412, "_uuid": "a482109d-def2-4d99-8d94-bca81ff9ae6d", "_submission_time": "2026-05-08T23:12:25", "_status": "submitted_via_web", "_submitted_by": "victorvisnuk", "__version__": "vsQjxVBRjZaow9Lao72VJT", "meta/rootUuid": "uuid:a482109d-def2-4d99-8d94-bca81ff9ae6d", "_index": 15 }, "geometry": { "type": "Point", "coordinates": [ -67.5629317, -54.8699092, 19.0 ] } },
{ "type": "Feature", "properties": { "Tipo de elemento preexistente a relevar": "Cartelería e información", "Tipo de señalética": "Señalética Informativa (Vecino y Turista)", "Nombre del elemento (Ej. Mirador del Beagle)": "Residuos", "Referencia cercana (Ej. A 50m del puente)": "Frente al destacamento policial", "Estado de Conservación": "Regular", "Material principal": "Metálico", "Uso actual": "Activo", "¿Presenta algún riesgo?": "Basural", "Nivel de Urgencia": "Baja", "Fotografía de detalle (objeto cercano)": "1778255327370.jpg", "Fotografía de detalle (objeto cercano)_URL": "https://kf.kobotoolbox.org/api/v2/assets/ajuHf4pirxdd5dDnBoAuBd/data/746973438/attachments/attHWkyuErT64FiYwvKBSkYN/", "Fotografía del entorno (contexto general)": "1778255342081.jpg", "Fotografía del entorno (contexto general)_URL": "https://kf.kobotoolbox.org/api/v2/assets/ajuHf4pirxdd5dDnBoAuBd/data/746973438/attachments/att9FaCnuvJNJWuw2wQkjsJC/", "_id": 746973438, "_uuid": "606155a9-0d22-4461-b0a4-ea1643415127", "_submission_time": "2026-05-08T23:12:32", "_status": "submitted_via_web", "_submitted_by": "victorvisnuk", "__version__": "vsQjxVBRjZaow9Lao72VJT", "meta/rootUuid": "uuid:606155a9-0d22-4461-b0a4-ea1643415127", "_index": 16 }, "geometry": { "type": "Point", "coordinates": [ -67.5637189, -54.8703281, 19.0 ] } },
{ "type": "Feature", "properties": { "Tipo de elemento preexistente a relevar": "Comercios", "Subtipo de comercio": "Plantas de procesamiento de pesca y puntos de venta", "Nombre del elemento (Ej. Mirador del Beagle)": "Valdez", "Estado de Conservación": "Bueno", "Material principal": "Chapa", "Uso actual": "Activo", "¿Presenta algún riesgo?": "Ninguno", "Nivel de Urgencia": "Baja", "Fotografía de detalle (objeto cercano)": "1778257384488.jpg", "Fotografía de detalle (objeto cercano)_URL": "https://kf.kobotoolbox.org/api/v2/assets/ajuHf4pirxdd5dDnBoAuBd/data/746973458/attachments/att2PJXFPcypZexDXFZvAGWx/", "Fotografía del entorno (contexto general)": "1778257396543.jpg", "Fotografía del entorno (contexto general)_URL": "https://kf.kobotoolbox.org/api/v2/assets/ajuHf4pirxdd5dDnBoAuBd/data/746973458/attachments/attv2p37sJadtygK6dcgN5Mu/", "_id": 746973458, "_uuid": "c648034a-5f94-49f0-a7fe-9c710994f414", "_submission_time": "2026-05-08T23:12:38", "_status": "submitted_via_web", "_submitted_by": "victorvisnuk", "__version__": "vsQjxVBRjZaow9Lao72VJT", "meta/rootUuid": "uuid:c648034a-5f94-49f0-a7fe-9c710994f414", "_index": 17 }, "geometry": { "type": "Point", "coordinates": [ -67.67158, -54.8860364, 19.0 ] } },
{ "type": "Feature", "properties": { "Tipo de elemento preexistente a relevar": "Comercios", "Subtipo de comercio": "Gastronómicos", "Nombre del elemento (Ej. Mirador del Beagle)": "Los notros", "Estado de Conservación": "Bueno", "Material principal": "Madera", "Uso actual": "Activo", "¿Presenta algún riesgo?": "Ninguno", "Nivel de Urgencia": "Baja", "Comentarios adicionales": "Parador comidas", "Fotografía de detalle (objeto cercano)": "1778257669443.jpg", "Fotografía de detalle (objeto cercano)_URL": "https://kf.kobotoolbox.org/api/v2/assets/ajuHf4pirxdd5dDnBoAuBd/data/746973473/attachments/attu6zL5BFN8DDGisny4wLps/", "Fotografía del entorno (contexto general)": "1778257688249.jpg", "Fotografía del entorno (contexto general)_URL": "https://kf.kobotoolbox.org/api/v2/assets/ajuHf4pirxdd5dDnBoAuBd/data/746973473/attachments/attodjWUHxAXkc9iwF6h2Ghf/", "_id": 746973473, "_uuid": "e8688b3e-e5d3-4f57-b966-ac60a7a1eee4", "_submission_time": "2026-05-08T23:12:45", "_status": "submitted_via_web", "_submitted_by": "victorvisnuk", "__version__": "vsQjxVBRjZaow9Lao72VJT", "meta/rootUuid": "uuid:e8688b3e-e5d3-4f57-b966-ac60a7a1eee4", "_index": 18 }, "geometry": { "type": "Point", "coordinates": [ -67.6812062, -54.8866271, 19.0 ] } },
{ "type": "Feature", "properties": { "Tipo de elemento preexistente a relevar": "Comercios", "Subtipo de comercio": "Gastronómicos", "Nombre del elemento (Ej. Mirador del Beagle)": "Puerto yagan", "Estado de Conservación": "Bueno", "Material principal": "Madera", "Uso actual": "Activo", "¿Presenta algún riesgo?": "Ninguno", "Nivel de Urgencia": "Baja", "Fotografía de detalle (objeto cercano)": "1778257825344.jpg", "Fotografía de detalle (objeto cercano)_URL": "https://kf.kobotoolbox.org/api/v2/assets/ajuHf4pirxdd5dDnBoAuBd/data/746973499/attachments/attj4qGMRMSeJ88v48EMx3Wn/", "Fotografía del entorno (contexto general)": "1778257834867.jpg", "Fotografía del entorno (contexto general)_URL": "https://kf.kobotoolbox.org/api/v2/assets/ajuHf4pirxdd5dDnBoAuBd/data/746973499/attachments/attmNkykWHDpfW4Wfg8R6hoa/", "_id": 746973499, "_uuid": "8a70c1b4-86a3-4fbd-a1d8-dbd2efd383d7", "_submission_time": "2026-05-08T23:12:50", "_status": "submitted_via_web", "_submitted_by": "victorvisnuk", "__version__": "vsQjxVBRjZaow9Lao72VJT", "meta/rootUuid": "uuid:8a70c1b4-86a3-4fbd-a1d8-dbd2efd383d7", "_index": 19 }, "geometry": { "type": "Point", "coordinates": [ -67.6878761, -54.8868747, 15.0 ] } },
{ "type": "Feature", "properties": { "Tipo de elemento preexistente a relevar": "Comercios", "Subtipo de comercio": "Gastronómicos", "Nombre del elemento (Ej. Mirador del Beagle)": "Ruca kelleñ", "Estado de Conservación": "Bueno", "Material principal": "Madera", "Uso actual": "Activo", "¿Presenta algún riesgo?": "Ninguno", "Nivel de Urgencia": "Baja", "Comentarios adicionales": "Cerrado por temporada", "Fotografía de detalle (objeto cercano)": "1778260031105.jpg", "Fotografía de detalle (objeto cercano)_URL": "https://kf.kobotoolbox.org/api/v2/assets/ajuHf4pirxdd5dDnBoAuBd/data/746973517/attachments/attVuNeUuKQCu4gmYXp4AvQZ/", "Fotografía del entorno (contexto general)": "1778260052078.jpg", "Fotografía del entorno (contexto general)_URL": "https://kf.kobotoolbox.org/api/v2/assets/ajuHf4pirxdd5dDnBoAuBd/data/746973517/attachments/att2kuTZ2o3i5b26RDoLVegB/", "_id": 746973517, "_uuid": "eeba8789-ad06-4000-9b51-15cf0d19c91c", "_submission_time": "2026-05-08T23:12:58", "_status": "submitted_via_web", "_submitted_by": "victorvisnuk", "__version__": "vsQjxVBRjZaow9Lao72VJT", "meta/rootUuid": "uuid:eeba8789-ad06-4000-9b51-15cf0d19c91c", "_index": 20 }, "geometry": { "type": "Point", "coordinates": [ -67.7113265, -54.8817612, 13.0 ] } },
{ "type": "Feature", "properties": { "Tipo de elemento preexistente a relevar": "Comercios", "Subtipo de comercio": "Gastronómicos", "Nombre del elemento (Ej. Mirador del Beagle)": "Puerto Pirata", "Estado de Conservación": "Bueno", "Material principal": "Madera", "Uso actual": "Activo", "¿Presenta algún riesgo?": "Ninguno", "Nivel de Urgencia": "Baja", "Fotografía de detalle (objeto cercano)": "1778260201474.jpg", "Fotografía de detalle (objeto cercano)_URL": "https://kf.kobotoolbox.org/api/v2/assets/ajuHf4pirxdd5dDnBoAuBd/data/746973555/attachments/attLcezXhZQYZc9U2oUWpWR8/", "Fotografía del entorno (contexto general)": "1778260211903.jpg", "Fotografía del entorno (contexto general)_URL": "https://kf.kobotoolbox.org/api/v2/assets/ajuHf4pirxdd5dDnBoAuBd/data/746973555/attachments/attWAZPyrbWqZRD2pVjRoWQG/", "_id": 746973555, "_uuid": "0db1d73b-5eb0-41b5-a3bc-b38132ef1046", "_submission_time": "2026-05-08T23:13:10", "_status": "submitted_via_web", "_submitted_by": "victorvisnuk", "__version__": "vsQjxVBRjZaow9Lao72VJT", "meta/rootUuid": "uuid:0db1d73b-5eb0-41b5-a3bc-b38132ef1046", "_index": 21 }, "geometry": { "type": "Point", "coordinates": [ -67.7192962, -54.8799966, 11.0 ] } },
{ "type": "Feature", "properties": { "Tipo de elemento preexistente a relevar": "Comercios", "Subtipo de comercio": "Gastronómicos", "Nombre del elemento (Ej. Mirador del Beagle)": "Akum", "Estado de Conservación": "Bueno", "Material principal": "Madera", "Uso actual": "Activo", "¿Presenta algún riesgo?": "Ninguno", "Nivel de Urgencia": "Baja", "Fotografía de detalle (objeto cercano)": "1778260343726.jpg", "Fotografía de detalle (objeto cercano)_URL": "https://kf.kobotoolbox.org/api/v2/assets/ajuHf4pirxdd5dDnBoAuBd/data/746973577/attachments/attMRR5pzqHWrmmMbJ9GZYqx/", "Fotografía del entorno (contexto general)": "1778260362002.jpg", "Fotografía del entorno (contexto general)_URL": "https://kf.kobotoolbox.org/api/v2/assets/ajuHf4pirxdd5dDnBoAuBd/data/746973577/attachments/att6oJA5PVzedY4SZMZphmiq/", "_id": 746973577, "_uuid": "9d4f9636-7a57-4755-ac3c-d4150332d03b", "_submission_time": "2026-05-08T23:13:21", "_status": "submitted_via_web", "_submitted_by": "victorvisnuk", "__version__": "vsQjxVBRjZaow9Lao72VJT", "meta/rootUuid": "uuid:9d4f9636-7a57-4755-ac3c-d4150332d03b", "_index": 22 }, "geometry": { "type": "Point", "coordinates": [ -67.7238177, -54.8800578, 13.0 ] } },
{ "type": "Feature", "properties": { "Tipo de elemento preexistente a relevar": "Estructura vial", "Detalle de estructura vial": "Cruces de ríos y arroyos (posibles desbordes)", "Nombre del elemento (Ej. Mirador del Beagle)": "Camping Almanza", "Referencia cercana (Ej. A 50m del puente)": "A 30 mts del chorrillo", "Estado de Conservación": "Regular", "Material principal": "Otro", "Especifique otro material": "Caño chapa", "Uso actual": "Activo", "¿Presenta algún riesgo?": "Inundación", "Nivel de Urgencia": "Media", "Comentarios adicionales": "Arroyo entubado con posible toma de agua y camping concurrido en temporada alta", "Fotografía de detalle (objeto cercano)": "1778244150277.jpg", "Fotografía de detalle (objeto cercano)_URL": "https://kf.kobotoolbox.org/api/v2/assets/ajuHf4pirxdd5dDnBoAuBd/data/770068626/attachments/attDNrdyhPmeNqDRLifmUvbw/", "Fotografía del entorno (contexto general)": "1778244181166.jpg", "Fotografía del entorno (contexto general)_URL": "https://kf.kobotoolbox.org/api/v2/assets/ajuHf4pirxdd5dDnBoAuBd/data/770068626/attachments/attjV3HrmLufmg8mM4Yfe6Te/", "_id": 770068626, "_uuid": "24cc806b-3829-4658-ad20-47055a5ade19", "_submission_time": "2026-06-03T18:25:05", "_status": "submitted_via_web", "_submitted_by": "victorvisnuk", "__version__": "vsQjxVBRjZaow9Lao72VJT", "meta/rootUuid": "uuid:24cc806b-3829-4658-ad20-47055a5ade19", "_index": 23 }, "geometry": { "type": "Point", "coordinates": [ -67.528835, -54.86485, 11.4 ] } },
{ "type": "Feature", "properties": { "Tipo de elemento preexistente a relevar": "Obstáculos en vías de escape", "Tipo de elemento obstructivo": "Otros elementos obstructivos", "Especifique otro obstáculo": "Soga de agarre cruza el sendero", "Referencia cercana (Ej. A 50m del puente)": "Cima del sendero", "Estado de Conservación": "Obstruido", "Material principal": "Otro", "Especifique otro material": "Soga", "Uso actual": "Activo", "¿Presenta algún riesgo?": "Otro", "Especifique otro riesgo": "Caída de arboles", "Nivel de Urgencia": "Media", "Fotografía de detalle (objeto cercano)": "1778245499579.jpg", "Fotografía de detalle (objeto cercano)_URL": "https://kf.kobotoolbox.org/api/v2/assets/ajuHf4pirxdd5dDnBoAuBd/data/770068704/attachments/attXQ3AaVzCUXbejwBVztJR2/", "Fotografía del entorno (contexto general)": "1778245508197.jpg", "Fotografía del entorno (contexto general)_URL": "https://kf.kobotoolbox.org/api/v2/assets/ajuHf4pirxdd5dDnBoAuBd/data/770068704/attachments/attpvnMexP5LSWMVaLmWg6GZ/", "_id": 770068704, "_uuid": "a292375d-12b2-4612-8261-737d01570d68", "_submission_time": "2026-06-03T18:25:11", "_status": "submitted_via_web", "_submitted_by": "victorvisnuk", "__version__": "vsQjxVBRjZaow9Lao72VJT", "meta/rootUuid": "uuid:a292375d-12b2-4612-8261-737d01570d68", "_index": 24 }, "geometry": { "type": "Point", "coordinates": [ -67.5394477, -54.867092, 34.4 ] } },
{ "type": "Feature", "properties": { "Tipo de elemento preexistente a relevar": "Otro", "Especifique otro tipo de elemento": "Posible punto de encuentro ", "Nombre del elemento (Ej. Mirador del Beagle)": "Toma de agua 1", "Referencia cercana (Ej. A 50m del puente)": "A 15m del tanque de toma ", "Estado de Conservación": "Malo", "Material principal": "Suelo natural", "Uso actual": "Activo", "¿Presenta algún riesgo?": "Otro", "Especifique otro riesgo": "Caída de árboles ", "Nivel de Urgencia": "Baja", "Comentarios adicionales": "Cruza la soga y el caño de agua por el sendero ", "Fotografía de detalle (objeto cercano)": "1778245830154.jpg", "Fotografía de detalle (objeto cercano)_URL": "https://kf.kobotoolbox.org/api/v2/assets/ajuHf4pirxdd5dDnBoAuBd/data/770068870/attachments/attnB3s5vvMw8sKMqNdJQ3TY/", "Fotografía del entorno (contexto general)": "1778245846150.jpg", "Fotografía del entorno (contexto general)_URL": "https://kf.kobotoolbox.org/api/v2/assets/ajuHf4pirxdd5dDnBoAuBd/data/770068870/attachments/attnDX4XEZJLCMiXKGexK2Ux/", "_id": 770068870, "_uuid": "822ec264-642a-446a-b59d-15dc0980f9a1", "_submission_time": "2026-06-03T18:25:24", "_status": "submitted_via_web", "_submitted_by": "victorvisnuk", "__version__": "vsQjxVBRjZaow9Lao72VJT", "meta/rootUuid": "uuid:822ec264-642a-446a-b59d-15dc0980f9a1", "_index": 25 }, "geometry": { "type": "Point", "coordinates": [ -67.53986, -54.8669817, 47.3 ] } },
{ "type": "Feature", "properties": { "Tipo de elemento preexistente a relevar": "Otro", "Especifique otro tipo de elemento": "Posible vía de escape ", "Nombre del elemento (Ej. Mirador del Beagle)": "Ruta de escape 2", "Estado de Conservación": "Bueno", "Material principal": "Suelo natural", "Uso actual": "Activo", "¿Presenta algún riesgo?": "Otro", "Especifique otro riesgo": "Caída de árboles ", "Nivel de Urgencia": "Baja", "Fotografía de detalle (objeto cercano)": "1778246065313.jpg", "Fotografía de detalle (objeto cercano)_URL": "https://kf.kobotoolbox.org/api/v2/assets/ajuHf4pirxdd5dDnBoAuBd/data/770069024/attachments/att3jYsh9Xvgx3DHgepxvrqU/", "Fotografía del entorno (contexto general)": "1778246083224.jpg", "Fotografía del entorno (contexto general)_URL": "https://kf.kobotoolbox.org/api/v2/assets/ajuHf4pirxdd5dDnBoAuBd/data/770069024/attachments/attajeoHiVGjapAoKFczx4Tt/", "_id": 770069024, "_uuid": "5b95fc1a-8ed3-4127-82bc-ce1068fb9468", "_submission_time": "2026-06-03T18:25:36", "_status": "submitted_via_web", "_submitted_by": "victorvisnuk", "__version__": "vsQjxVBRjZaow9Lao72VJT", "meta/rootUuid": "uuid:5b95fc1a-8ed3-4127-82bc-ce1068fb9468", "_index": 26 }, "geometry": { "type": "Point", "coordinates": [ -67.54026, -54.8672133, 37.8 ] } },
{ "type": "Feature", "properties": { "Tipo de elemento preexistente a relevar": "Otro", "Especifique otro tipo de elemento": "Posible vía de escape ", "Nombre del elemento (Ej. Mirador del Beagle)": "Ruta 3", "Referencia cercana (Ej. A 50m del puente)": "A 5 metros toma de agua", "Estado de Conservación": "Malo", "Material principal": "Suelo natural", "Uso actual": "Activo", "¿Presenta algún riesgo?": "Otro", "Especifique otro riesgo": "Caída de árboles ", "Nivel de Urgencia": "Media", "Comentarios adicionales": "Camino poco transitado, mucho arbusto sobre el sendero, subida empinada ", "Fotografía de detalle (objeto cercano)": "1778247022716.jpg", "Fotografía de detalle (objeto cercano)_URL": "https://kf.kobotoolbox.org/api/v2/assets/ajuHf4pirxdd5dDnBoAuBd/data/770069154/attachments/att3b73YbLyhmLAyVCWXV2P3/", "Fotografía del entorno (contexto general)": "1778247041215.jpg", "Fotografía del entorno (contexto general)_URL": "https://kf.kobotoolbox.org/api/v2/assets/ajuHf4pirxdd5dDnBoAuBd/data/770069154/attachments/attAvF8uiodVjiRAPmwK7666/", "_id": 770069154, "_uuid": "1824add8-f45c-4c16-9287-4fb900a9733d", "_submission_time": "2026-06-03T18:25:49", "_status": "submitted_via_web", "_submitted_by": "victorvisnuk", "__version__": "vsQjxVBRjZaow9Lao72VJT", "meta/rootUuid": "uuid:1824add8-f45c-4c16-9287-4fb900a9733d", "_index": 27 }, "geometry": { "type": "Point", "coordinates": [ -67.5421545, -54.8673257, 28.5 ] } },
{ "type": "Feature", "properties": { "Tipo de elemento preexistente a relevar": "Obstáculos en vías de escape", "Tipo de elemento obstructivo": "Otros elementos obstructivos", "Especifique otro obstáculo": "Cerco perímetral cerrado", "Nombre del elemento (Ej. Mirador del Beagle)": "Ruta 5", "Referencia cercana (Ej. A 50m del puente)": "A 10mts de toma de agua", "Estado de Conservación": "Regular", "Material principal": "Madera", "Uso actual": "Activo", "¿Presenta algún riesgo?": "Otro", "Especifique otro riesgo": "Caída de árboles ", "Nivel de Urgencia": "Alta", "Comentarios adicionales": "Salida de restaurante, semi rígido rojo", "Fotografía de detalle (objeto cercano)": "1778247423552.jpg", "Fotografía de detalle (objeto cercano)_URL": "https://kf.kobotoolbox.org/api/v2/assets/ajuHf4pirxdd5dDnBoAuBd/data/770071543/attachments/attfkYpsFqSNk7ahYxgQXERX/", "Fotografía del entorno (contexto general)": "1778247452671.jpg", "Fotografía del entorno (contexto general)_URL": "https://kf.kobotoolbox.org/api/v2/assets/ajuHf4pirxdd5dDnBoAuBd/data/770071543/attachments/attBKw5jghdYvAWsbPi5nQyP/", "_id": 770071543, "_uuid": "953a25f9-3c96-48b1-9a24-d741e4712d7c", "_submission_time": "2026-06-03T18:28:17", "_status": "submitted_via_web", "_submitted_by": "victorvisnuk", "__version__": "vsQjxVBRjZaow9Lao72VJT", "meta/rootUuid": "uuid:953a25f9-3c96-48b1-9a24-d741e4712d7c", "_index": 28 }, "geometry": { "type": "Point", "coordinates": [ -67.5428995, -54.8673712, 28.8 ] } },
{ "type": "Feature", "properties": { "Tipo de elemento preexistente a relevar": "Otro", "Especifique otro tipo de elemento": "Posible vía de escape ", "Nombre del elemento (Ej. Mirador del Beagle)": "Ruta 6", "Referencia cercana (Ej. A 50m del puente)": "La centolla borracha /crusty burger", "Estado de Conservación": "Bueno", "Material principal": "Suelo natural", "Uso actual": "Activo", "¿Presenta algún riesgo?": "Ninguno", "Nivel de Urgencia": "Alta", "Comentarios adicionales": "Pendiente menos pronunciada ", "Fotografía de detalle (objeto cercano)": "1778247834911.jpg", "Fotografía de detalle (objeto cercano)_URL": "https://kf.kobotoolbox.org/api/v2/assets/ajuHf4pirxdd5dDnBoAuBd/data/770071744/attachments/att5n96v9e4XBWvYbxs846Um/", "Fotografía del entorno (contexto general)": "1778247854917.jpg", "Fotografía del entorno (contexto general)_URL": "https://kf.kobotoolbox.org/api/v2/assets/ajuHf4pirxdd5dDnBoAuBd/data/770071744/attachments/attkaVeAPNBvBfdyXX63xtVg/", "_id": 770071744, "_uuid": "b3fe164c-1a8b-41e8-b9d2-e3fb1eb7f8b5", "_submission_time": "2026-06-03T18:28:30", "_status": "submitted_via_web", "_submitted_by": "victorvisnuk", "__version__": "vsQjxVBRjZaow9Lao72VJT", "meta/rootUuid": "uuid:b3fe164c-1a8b-41e8-b9d2-e3fb1eb7f8b5", "_index": 29 }, "geometry": { "type": "Point", "coordinates": [ -67.5435417, -54.86747, 21.1 ] } },
{ "type": "Feature", "properties": { "Tipo de elemento preexistente a relevar": "Otro", "Especifique otro tipo de elemento": "Posible punto de encuentro ", "Estado de Conservación": "Bueno", "Material principal": "Suelo natural", "Uso actual": "En obra", "¿Presenta algún riesgo?": "Ninguno", "Nivel de Urgencia": "Baja", "Comentarios adicionales": "Se puede ingresar con auto/camioneta ", "Fotografía de detalle (objeto cercano)": "1778248578865.jpg", "Fotografía de detalle (objeto cercano)_URL": "https://kf.kobotoolbox.org/api/v2/assets/ajuHf4pirxdd5dDnBoAuBd/data/770071981/attachments/attCQemoZ7wUTktz9bynDWrP/", "Fotografía del entorno (contexto general)": "1778248596893.jpg", "Fotografía del entorno (contexto general)_URL": "https://kf.kobotoolbox.org/api/v2/assets/ajuHf4pirxdd5dDnBoAuBd/data/770071981/attachments/attV7stDZAuKh4C6m6QoKrwA/", "_id": 770071981, "_uuid": "a15807ee-5ba9-466a-a5bb-27964c133245", "_submission_time": "2026-06-03T18:28:43", "_status": "submitted_via_web", "_submitted_by": "victorvisnuk", "__version__": "vsQjxVBRjZaow9Lao72VJT", "meta/rootUuid": "uuid:a15807ee-5ba9-466a-a5bb-27964c133245", "_index": 30 }, "geometry": { "type": "Point", "coordinates": [ -67.5454403, -54.8670201, 30.6 ] } },
{ "type": "Feature", "properties": { "Tipo de elemento preexistente a relevar": "Otro", "Especifique otro tipo de elemento": "Posible vía de escape ", "Nombre del elemento (Ej. Mirador del Beagle)": "Ruta 7", "Referencia cercana (Ej. A 50m del puente)": "Perpendicular al cartel de Onas restoran ", "Estado de Conservación": "Bueno", "Material principal": "Suelo natural", "Uso actual": "Activo", "¿Presenta algún riesgo?": "Ninguno", "Nivel de Urgencia": "Baja", "Comentarios adicionales": "Cruzan caños de agua, punto de encuentro puede ser en el cartel de Onas restoran ", "Fotografía de detalle (objeto cercano)": "1778248950576.jpg", "Fotografía de detalle (objeto cercano)_URL": "https://kf.kobotoolbox.org/api/v2/assets/ajuHf4pirxdd5dDnBoAuBd/data/770072154/attachments/attyKBEJx94wcBgc3BL7Abry/", "Fotografía del entorno (contexto general)": "1778248958018.jpg", "Fotografía del entorno (contexto general)_URL": "https://kf.kobotoolbox.org/api/v2/assets/ajuHf4pirxdd5dDnBoAuBd/data/770072154/attachments/attib2KgibcHc9o9SH74E6x4/", "_id": 770072154, "_uuid": "b830aab7-2828-4fbe-863c-5decdedd7209", "_submission_time": "2026-06-03T18:28:55", "_status": "submitted_via_web", "_submitted_by": "victorvisnuk", "__version__": "vsQjxVBRjZaow9Lao72VJT", "meta/rootUuid": "uuid:b830aab7-2828-4fbe-863c-5decdedd7209", "_index": 31 }, "geometry": { "type": "Point", "coordinates": [ -67.5458917, -54.8676283, 27.6 ] } },
{ "type": "Feature", "properties": { "Tipo de elemento preexistente a relevar": "Otro", "Especifique otro tipo de elemento": "Posible vía de escape ", "Nombre del elemento (Ej. Mirador del Beagle)": "Ruta 8", "Referencia cercana (Ej. A 50m del puente)": "Bote amarillo tirado en el frente", "Estado de Conservación": "Bueno", "Material principal": "Suelo natural", "Uso actual": "Activo", "¿Presenta algún riesgo?": "Ninguno", "Nivel de Urgencia": "Media", "Comentarios adicionales": "Acopio de bollas, material, redes", "Fotografía de detalle (objeto cercano)": "1778249206505.jpg", "Fotografía de detalle (objeto cercano)_URL": "https://kf.kobotoolbox.org/api/v2/assets/ajuHf4pirxdd5dDnBoAuBd/data/770072372/attachments/attMEkPVHj3epmgU7uxkYfo6/", "Fotografía del entorno (contexto general)": "1778249234265.jpg", "Fotografía del entorno (contexto general)_URL": "https://kf.kobotoolbox.org/api/v2/assets/ajuHf4pirxdd5dDnBoAuBd/data/770072372/attachments/attmoCmnTC9MQEz3bR798LkW/", "_id": 770072372, "_uuid": "8c790c69-7525-4cd8-bb7c-bff2e5e0f97d", "_submission_time": "2026-06-03T18:29:08", "_status": "submitted_via_web", "_submitted_by": "victorvisnuk", "__version__": "vsQjxVBRjZaow9Lao72VJT", "meta/rootUuid": "uuid:8c790c69-7525-4cd8-bb7c-bff2e5e0f97d", "_index": 32 }, "geometry": { "type": "Point", "coordinates": [ -67.5474933, -54.8678717, 101.300003051757812 ] } },
{ "type": "Feature", "properties": { "Tipo de elemento preexistente a relevar": "Otro", "Especifique otro tipo de elemento": "Posible vía de escape ", "Nombre del elemento (Ej. Mirador del Beagle)": "Ruta 9", "Estado de Conservación": "Bueno", "Material principal": "Suelo natural", "Uso actual": "Activo", "¿Presenta algún riesgo?": "Otro", "Especifique otro riesgo": "Escalón vertical sobre la subida ", "Nivel de Urgencia": "Media", "Comentarios adicionales": "Pendiente buena", "Fotografía de detalle (objeto cercano)": "1778249500840.jpg", "Fotografía de detalle (objeto cercano)_URL": "https://kf.kobotoolbox.org/api/v2/assets/ajuHf4pirxdd5dDnBoAuBd/data/770072661/attachments/attxMYKYGEn9H5prbfVH6Uir/", "Fotografía del entorno (contexto general)": "1778249512800.jpg", "Fotografía del entorno (contexto general)_URL": "https://kf.kobotoolbox.org/api/v2/assets/ajuHf4pirxdd5dDnBoAuBd/data/770072661/attachments/attpzbrCgiPN9ddaC3qMHpCv/", "_id": 770072661, "_uuid": "ab4b2a8f-c8bb-4e16-986c-ee5c685ea1f5", "_submission_time": "2026-06-03T18:29:20", "_status": "submitted_via_web", "_submitted_by": "victorvisnuk", "__version__": "vsQjxVBRjZaow9Lao72VJT", "meta/rootUuid": "uuid:ab4b2a8f-c8bb-4e16-986c-ee5c685ea1f5", "_index": 33 }, "geometry": { "type": "Point", "coordinates": [ -67.5476752, -54.8679347, 101.300003051757812 ] } },
{ "type": "Feature", "properties": { "Tipo de elemento preexistente a relevar": "Otro", "Especifique otro tipo de elemento": "Posible vía de escape ", "Nombre del elemento (Ej. Mirador del Beagle)": "Ruta 10", "Referencia cercana (Ej. A 50m del puente)": "Casa abandonada/medio hacer", "Estado de Conservación": "Regular", "Material principal": "Suelo natural", "Uso actual": "Abandonado", "¿Presenta algún riesgo?": "Otro", "Especifique otro riesgo": "Palos sobre el camino ", "Nivel de Urgencia": "Alta", "Fotografía de detalle (objeto cercano)": "1778250769118.jpg", "Fotografía de detalle (objeto cercano)_URL": "https://kf.kobotoolbox.org/api/v2/assets/ajuHf4pirxdd5dDnBoAuBd/data/770073387/attachments/attwskQSZUYKQVTfsidrBaX3/", "Fotografía del entorno (contexto general)": "1778250791114.jpg", "Fotografía del entorno (contexto general)_URL": "https://kf.kobotoolbox.org/api/v2/assets/ajuHf4pirxdd5dDnBoAuBd/data/770073387/attachments/attpMQRNXzuHq92kg8HVsrAB/", "_id": 770073387, "_uuid": "bb6dfc1f-c477-4772-8454-b2612e0c176d", "_submission_time": "2026-06-03T18:30:03", "_status": "submitted_via_web", "_submitted_by": "victorvisnuk", "__version__": "vsQjxVBRjZaow9Lao72VJT", "meta/rootUuid": "uuid:bb6dfc1f-c477-4772-8454-b2612e0c176d", "_index": 34 }, "geometry": { "type": "Point", "coordinates": [ -67.5527333, -54.8683983, 42.5 ] } },
{ "type": "Feature", "properties": { "Tipo de elemento preexistente a relevar": "Comercios", "Subtipo de comercio": "Almacenes", "Nombre del elemento (Ej. Mirador del Beagle)": "Sin nombre", "Referencia cercana (Ej. A 50m del puente)": "Sobre la ruta k", "Estado de Conservación": "Bueno", "Material principal": "Madera", "Uso actual": "Activo", "¿Presenta algún riesgo?": "Ninguno", "Nivel de Urgencia": "Baja", "Fotografía de detalle (objeto cercano)": "1778251926171.jpg", "Fotografía de detalle (objeto cercano)_URL": "https://kf.kobotoolbox.org/api/v2/assets/ajuHf4pirxdd5dDnBoAuBd/data/770073579/attachments/attVdKEb634gKjDStkP8CHjn/", "Fotografía del entorno (contexto general)": "1778251946796.jpg", "Fotografía del entorno (contexto general)_URL": "https://kf.kobotoolbox.org/api/v2/assets/ajuHf4pirxdd5dDnBoAuBd/data/770073579/attachments/attYSdjNXrGpjskuLxVouBnk/", "_id": 770073579, "_uuid": "0f59a9d7-eee4-4841-b7ea-f2751cef8c15", "_submission_time": "2026-06-03T18:30:16", "_status": "submitted_via_web", "_submitted_by": "victorvisnuk", "__version__": "vsQjxVBRjZaow9Lao72VJT", "meta/rootUuid": "uuid:0f59a9d7-eee4-4841-b7ea-f2751cef8c15", "_index": 35 }, "geometry": { "type": "Point", "coordinates": [ -67.55037, -54.8685217, 20.3 ] } },
{ "type": "Feature", "properties": { "Tipo de elemento preexistente a relevar": "Comercios", "Subtipo de comercio": "Almacenes", "Nombre del elemento (Ej. Mirador del Beagle)": "La fueguina - ramos generales ", "Referencia cercana (Ej. A 50m del puente)": "Cartel sobre el lado de la costa ", "Estado de Conservación": "Bueno", "Material principal": "Chapa", "Uso actual": "Activo", "¿Presenta algún riesgo?": "Ninguno", "Nivel de Urgencia": "Baja", "Fotografía de detalle (objeto cercano)": "1778252214339.jpg", "Fotografía de detalle (objeto cercano)_URL": "https://kf.kobotoolbox.org/api/v2/assets/ajuHf4pirxdd5dDnBoAuBd/data/770073755/attachments/attEmkMs3exdNEHVrTyfamKv/", "Fotografía del entorno (contexto general)": "1778252232341.jpg", "Fotografía del entorno (contexto general)_URL": "https://kf.kobotoolbox.org/api/v2/assets/ajuHf4pirxdd5dDnBoAuBd/data/770073755/attachments/attammoQAjQNqfnGZRYWNha3/", "_id": 770073755, "_uuid": "eef00cb4-6a77-4b24-bb93-c084127998eb", "_submission_time": "2026-06-03T18:30:30", "_status": "submitted_via_web", "_submitted_by": "victorvisnuk", "__version__": "vsQjxVBRjZaow9Lao72VJT", "meta/rootUuid": "uuid:eef00cb4-6a77-4b24-bb93-c084127998eb", "_index": 36 }, "geometry": { "type": "Point", "coordinates": [ -67.5484116, -54.8683157, 142.900009155273438 ] } },
{ "type": "Feature", "properties": { "Tipo de elemento preexistente a relevar": "Comercios", "Subtipo de comercio": "Gastronómicos", "Nombre del elemento (Ej. Mirador del Beagle)": "Onas restoran ", "Referencia cercana (Ej. A 50m del puente)": "Cartel onas restoran ", "Estado de Conservación": "Bueno", "Material principal": "Madera", "Uso actual": "Activo", "¿Presenta algún riesgo?": "Ninguno", "Nivel de Urgencia": "Baja", "Comentarios adicionales": "Con espacio de estacionamiento cruzando la ruta ", "Fotografía de detalle (objeto cercano)": "1778252568817.jpg", "Fotografía de detalle (objeto cercano)_URL": "https://kf.kobotoolbox.org/api/v2/assets/ajuHf4pirxdd5dDnBoAuBd/data/770073958/attachments/attxmtXT9Xd5s9iRtnLKMgLW/", "Fotografía del entorno (contexto general)": "1778252603525.jpg", "Fotografía del entorno (contexto general)_URL": "https://kf.kobotoolbox.org/api/v2/assets/ajuHf4pirxdd5dDnBoAuBd/data/770073958/attachments/atta9UKqS35tFpxqui5ARkdm/", "_id": 770073958, "_uuid": "472dcc7d-6c74-4c2e-8ac1-3da1b87c6bd0", "_submission_time": "2026-06-03T18:30:42", "_status": "submitted_via_web", "_submitted_by": "victorvisnuk", "__version__": "vsQjxVBRjZaow9Lao72VJT", "meta/rootUuid": "uuid:472dcc7d-6c74-4c2e-8ac1-3da1b87c6bd0", "_index": 37 }, "geometry": { "type": "Point", "coordinates": [ -67.5462215, -54.8683281, 101.300003051757812 ] } },
{ "type": "Feature", "properties": { "Tipo de elemento preexistente a relevar": "Comercios", "Subtipo de comercio": "Kioscos", "Nombre del elemento (Ej. Mirador del Beagle)": "Pescaderia los tres hermanos", "Referencia cercana (Ej. A 50m del puente)": "Bote abandonado tiburón i ushu,.", "Estado de Conservación": "Bueno", "Material principal": "Chapa", "Uso actual": "Activo", "¿Presenta algún riesgo?": "Ninguno", "Nivel de Urgencia": "Baja", "Fotografía de detalle (objeto cercano)": "1778252761592.jpg", "Fotografía de detalle (objeto cercano)_URL": "https://kf.kobotoolbox.org/api/v2/assets/ajuHf4pirxdd5dDnBoAuBd/data/770074154/attachments/attPztbRwR33rS4d7Nhxw2cH/", "Fotografía del entorno (contexto general)": "1778252779341.jpg", "Fotografía del entorno (contexto general)_URL": "https://kf.kobotoolbox.org/api/v2/assets/ajuHf4pirxdd5dDnBoAuBd/data/770074154/attachments/att9WYMbCom97YxnqudtYy6T/", "_id": 770074154, "_uuid": "15f11ad7-2271-44ee-ac6d-5dd2e91b9d97", "_submission_time": "2026-06-03T18:30:55", "_status": "submitted_via_web", "_submitted_by": "victorvisnuk", "__version__": "vsQjxVBRjZaow9Lao72VJT", "meta/rootUuid": "uuid:15f11ad7-2271-44ee-ac6d-5dd2e91b9d97", "_index": 38 }, "geometry": { "type": "Point", "coordinates": [ -67.545157, -54.8682433, 101.300003051757812 ] } },
{ "type": "Feature", "properties": { "Tipo de elemento preexistente a relevar": "Comercios", "Subtipo de comercio": "Gastronómicos", "Nombre del elemento (Ej. Mirador del Beagle)": "La centolla borracha", "Referencia cercana (Ej. A 50m del puente)": "Tiene el puesto de hamburguesas krusty burger", "Estado de Conservación": "Bueno", "Material principal": "Madera", "Uso actual": "Activo", "¿Presenta algún riesgo?": "Ninguno", "Nivel de Urgencia": "Baja", "Fotografía de detalle (objeto cercano)": "1778252994032.jpg", "Fotografía de detalle (objeto cercano)_URL": "https://kf.kobotoolbox.org/api/v2/assets/ajuHf4pirxdd5dDnBoAuBd/data/770074307/attachments/att5DS22Snnq9kqUTjZ4JPa6/", "Fotografía del entorno (contexto general)": "1778253009818.jpg", "Fotografía del entorno (contexto general)_URL": "https://kf.kobotoolbox.org/api/v2/assets/ajuHf4pirxdd5dDnBoAuBd/data/770074307/attachments/attyubxnBPEJsrzXnZia2kJy/", "_id": 770074307, "_uuid": "a267c5e9-9478-4fd0-899f-eb7ebcacb6ee", "_submission_time": "2026-06-03T18:31:08", "_status": "submitted_via_web", "_submitted_by": "victorvisnuk", "__version__": "vsQjxVBRjZaow9Lao72VJT", "meta/rootUuid": "uuid:a267c5e9-9478-4fd0-899f-eb7ebcacb6ee", "_index": 39 }, "geometry": { "type": "Point", "coordinates": [ -67.5435228, -54.8680338, 101.300003051757812 ] } },
{ "type": "Feature", "properties": { "Tipo de elemento preexistente a relevar": "Otro", "Especifique otro tipo de elemento": "Posible punto de encuentro ", "Nombre del elemento (Ej. Mirador del Beagle)": "Escuela 49", "Estado de Conservación": "Bueno", "Material principal": "Hormigón", "Uso actual": "Activo", "¿Presenta algún riesgo?": "Ninguno", "Nivel de Urgencia": "Baja", "Fotografía de detalle (objeto cercano)": "1778255148675.jpg", "Fotografía de detalle (objeto cercano)_URL": "https://kf.kobotoolbox.org/api/v2/assets/ajuHf4pirxdd5dDnBoAuBd/data/770074521/attachments/attykqqdjcAvVYaFqh4sGrXb/", "Fotografía del entorno (contexto general)": "1778255156364.jpg", "Fotografía del entorno (contexto general)_URL": "https://kf.kobotoolbox.org/api/v2/assets/ajuHf4pirxdd5dDnBoAuBd/data/770074521/attachments/att5pZfK2Q3Ux7CzaGRYMdZR/", "_id": 770074521, "_uuid": "c3acf14e-3d42-48b2-90ec-5ff6e16587d6", "_submission_time": "2026-06-03T18:31:22", "_status": "submitted_via_web", "_submitted_by": "victorvisnuk", "__version__": "vsQjxVBRjZaow9Lao72VJT", "meta/rootUuid": "uuid:c3acf14e-3d42-48b2-90ec-5ff6e16587d6", "_index": 40 }, "geometry": { "type": "Point", "coordinates": [ -67.5626012, -54.8696179, 142.900009155273438 ] } },
{ "type": "Feature", "properties": { "Tipo de elemento preexistente a relevar": "Otro", "Especifique otro tipo de elemento": "Posible punto de encuentro ", "Nombre del elemento (Ej. Mirador del Beagle)": "Preferectura ", "Referencia cercana (Ej. A 50m del puente)": "Atrás del destacamento de prefectura ", "Estado de Conservación": "Bueno", "Material principal": "Suelo natural", "Uso actual": "Activo", "¿Presenta algún riesgo?": "Ninguno", "Nivel de Urgencia": "Baja", "Fotografía de detalle (objeto cercano)": "1778255682069.jpg", "Fotografía de detalle (objeto cercano)_URL": "https://kf.kobotoolbox.org/api/v2/assets/ajuHf4pirxdd5dDnBoAuBd/data/770074600/attachments/attxUgc8VKUaoWasHRZSQuQm/", "Fotografía del entorno (contexto general)": "1778255697280.jpg", "Fotografía del entorno (contexto general)_URL": "https://kf.kobotoolbox.org/api/v2/assets/ajuHf4pirxdd5dDnBoAuBd/data/770074600/attachments/attdHAbjnzB8HmNemJyJtf8C/", "_id": 770074600, "_uuid": "2d457762-fe6a-45a6-a56f-9862a50e9a65", "_submission_time": "2026-06-03T18:31:28", "_status": "submitted_via_web", "_submitted_by": "victorvisnuk", "__version__": "vsQjxVBRjZaow9Lao72VJT", "meta/rootUuid": "uuid:2d457762-fe6a-45a6-a56f-9862a50e9a65", "_index": 41 }, "geometry": { "type": "Point", "coordinates": [ -67.5650932, -54.8697857, 16.2 ] } }
]
}
