{
"type": "FeatureCollection",
"name": "zona_conflicto",
"crs": { "type": "name", "properties": { "name": "urn:ogc:def:crs:OGC:1.3:CRS84" } },
"features": [
{ "type": "Feature", "properties": { "id": 1 }, "geometry": { "type": "MultiPolygon", "coordinates": [ [ [ [ -67.66088795140729, -54.884166796298928 ], [ -67.660898965966766, -54.884613891933633 ], [ -67.658865970499022, -54.884353077549477 ], [ -67.659142980919555, -54.884053186279338 ], [ -67.66088795140729, -54.884166796298928 ] ] ] ] } }
]
}
